[{"OBJECT_NAME":"O3B FM17","OBJECT_ID":"2019-020C","EPOCH":"2026-04-05T03:49:16.519872","MEAN_MOTION":5.00115522,"ECCENTRICITY":0.00026341,"INCLINATION":0.0359,"RA_OF_ASC_NODE":348.5737,"ARG_OF_PERICENTER":22.2983,"MEAN_ANOMALY":349.1325,"EPHEMERIS_TYPE":0,"CLASSIFICATION_TYPE":"U","NORAD_CAT_ID":44114,"ELEMENT_SET_NO":999,"REV_AT_EPOCH":12787,"BSTAR":0,"MEAN_MOTION_DOT":-2.6e-7,"MEAN_MOTION_DDOT":0},{"OBJECT_NAME":"O3B FM18","OBJECT_ID":"2019-020D","EPOCH":"2026-04-05T02:31:57.170784","MEAN_MOTION":5.00115331,"ECCENTRICITY":0.00027316,"INCLINATION":0.0533,"RA_OF_ASC_NODE":1.1009,"ARG_OF_PERICENTER":13.5975,"MEAN_ANOMALY":345.3083,"EPHEMERIS_TYPE":0,"CLASSIFICATION_TYPE":"U","NORAD_CAT_ID":44115,"ELEMENT_SET_NO":999,"REV_AT_EPOCH":12798,"BSTAR":0,"MEAN_MOTION_DOT":-2.5e-7,"MEAN_MOTION_DDOT":0},{"OBJECT_NAME":"SES-17","OBJECT_ID":"2021-095A","EPOCH":"2026-04-05T05:05:03.725952","MEAN_MOTION":1.00269789,"ECCENTRICITY":0.00011602,"INCLINATION":0.0332,"RA_OF_ASC_NODE":45.2913,"ARG_OF_PERICENTER":336.1875,"MEAN_ANOMALY":181.2031,"EPHEMERIS_TYPE":0,"CLASSIFICATION_TYPE":"U","NORAD_CAT_ID":49332,"ELEMENT_SET_NO":999,"REV_AT_EPOCH":1712,"BSTAR":0,"MEAN_MOTION_DOT":-2.71e-6,"MEAN_MOTION_DDOT":0},{"OBJECT_NAME":"SES-22","OBJECT_ID":"2022-071A","EPOCH":"2026-04-05T05:14:21.645312","MEAN_MOTION":1.00271441,"ECCENTRICITY":0.00012486,"INCLINATION":0.0182,"RA_OF_ASC_NODE":230.4594,"ARG_OF_PERICENTER":154.5621,"MEAN_ANOMALY":108.0699,"EPHEMERIS_TYPE":0,"CLASSIFICATION_TYPE":"U","NORAD_CAT_ID":52933,"ELEMENT_SET_NO":999,"REV_AT_EPOCH":679,"BSTAR":0,"MEAN_MOTION_DOT":1.06e-6,"MEAN_MOTION_DDOT":0},{"OBJECT_NAME":"SES-20","OBJECT_ID":"2022-123A","EPOCH":"2026-04-04T22:33:54.780768","MEAN_MOTION":1.00272587,"ECCENTRICITY":0.00018629,"INCLINATION":0.039,"RA_OF_ASC_NODE":81.0494,"ARG_OF_PERICENTER":340.8988,"MEAN_ANOMALY":6.671,"EPHEMERIS_TYPE":0,"CLASSIFICATION_TYPE":"U","NORAD_CAT_ID":53960,"ELEMENT_SET_NO":999,"REV_AT_EPOCH":1279,"BSTAR":0,"MEAN_MOTION_DOT":-1.0e-6,"MEAN_MOTION_DDOT":0},{"OBJECT_NAME":"SES-21","OBJECT_ID":"2022-123B","EPOCH":"2026-04-05T00:08:36.525120","MEAN_MOTION":1.00269456,"ECCENTRICITY":0.00015117,"INCLINATION":0.0269,"RA_OF_ASC_NODE":69.0097,"ARG_OF_PERICENTER":296.3347,"MEAN_ANOMALY":59.1142,"EPHEMERIS_TYPE":0,"CLASSIFICATION_TYPE":"U","NORAD_CAT_ID":53961,"ELEMENT_SET_NO":999,"REV_AT_EPOCH":647,"BSTAR":0,"MEAN_MOTION_DOT":7.0e-7,"MEAN_MOTION_DDOT":0},{"OBJECT_NAME":"O3B MPOWER F1","OBJECT_ID":"2022-174A","EPOCH":"2026-04-05T00:06:14.251968","MEAN_MOTION":5.00114922,"ECCENTRICITY":0.00056413,"INCLINATION":0.0622,"RA_OF_ASC_NODE":348.9934,"ARG_OF_PERICENTER":43.4576,"MEAN_ANOMALY":5.1082,"EPHEMERIS_TYPE":0,"CLASSIFICATION_TYPE":"U","NORAD_CAT_ID":54755,"ELEMENT_SET_NO":999,"REV_AT_EPOCH":6169,"BSTAR":0,"MEAN_MOTION_DOT":-2.6e-7,"MEAN_MOTION_DDOT":0},{"OBJECT_NAME":"O3B MPOWER F2","OBJECT_ID":"2022-174B","EPOCH":"2026-04-05T03:36:02.045088","MEAN_MOTION":5.00115573,"ECCENTRICITY":0.00059315,"INCLINATION":0.0593,"RA_OF_ASC_NODE":346.1754,"ARG_OF_PERICENTER":27.2945,"MEAN_ANOMALY":346.5447,"EPHEMERIS_TYPE":0,"CLASSIFICATION_TYPE":"U","NORAD_CAT_ID":54756,"ELEMENT_SET_NO":999,"REV_AT_EPOCH":6179,"BSTAR":0,"MEAN_MOTION_DOT":-2.6e-7,"MEAN_MOTION_DDOT":0},{"OBJECT_NAME":"SES-18","OBJECT_ID":"2023-038A","EPOCH":"2026-04-05T03:46:38.460576","MEAN_MOTION":1.00272211,"ECCENTRICITY":0.00016188,"INCLINATION":0.0251,"RA_OF_ASC_NODE":260.5701,"ARG_OF_PERICENTER":75.273,"MEAN_ANOMALY":171.1723,"EPHEMERIS_TYPE":0,"CLASSIFICATION_TYPE":"U","NORAD_CAT_ID":55970,"ELEMENT_SET_NO":999,"REV_AT_EPOCH":1137,"BSTAR":0,"MEAN_MOTION_DOT":-1.0e-6,"MEAN_MOTION_DDOT":0},{"OBJECT_NAME":"SES-19","OBJECT_ID":"2023-038B","EPOCH":"2026-04-05T05:15:29.037312","MEAN_MOTION":1.00271167,"ECCENTRICITY":0.00018622,"INCLINATION":0.0221,"RA_OF_ASC_NODE":278.6828,"ARG_OF_PERICENTER":105.1196,"MEAN_ANOMALY":113.6868,"EPHEMERIS_TYPE":0,"CLASSIFICATION_TYPE":"U","NORAD_CAT_ID":55971,"ELEMENT_SET_NO":999,"REV_AT_EPOCH":1135,"BSTAR":0,"MEAN_MOTION_DOT":8.9e-7,"MEAN_MOTION_DDOT":0},{"OBJECT_NAME":"O3B MPOWER F4","OBJECT_ID":"2023-059A","EPOCH":"2026-04-05T00:20:50.273664","MEAN_MOTION":5.00116127,"ECCENTRICITY":0.00070364,"INCLINATION":0.0643,"RA_OF_ASC_NODE":4.4972,"ARG_OF_PERICENTER":23.6746,"MEAN_ANOMALY":331.8649,"EPHEMERIS_TYPE":0,"CLASSIFICATION_TYPE":"U","NORAD_CAT_ID":56367,"ELEMENT_SET_NO":999,"REV_AT_EPOCH":5494,"BSTAR":0,"MEAN_MOTION_DOT":-2.6e-7,"MEAN_MOTION_DDOT":0},{"OBJECT_NAME":"O3B MPOWER F3","OBJECT_ID":"2023-059B","EPOCH":"2026-04-05T05:56:37.822272","MEAN_MOTION":5.0011675,"ECCENTRICITY":0.00065966,"INCLINATION":0.0654,"RA_OF_ASC_NODE":4.4197,"ARG_OF_PERICENTER":13.7817,"MEAN_ANOMALY":341.821,"EPHEMERIS_TYPE":0,"CLASSIFICATION_TYPE":"U","NORAD_CAT_ID":56368,"ELEMENT_SET_NO":999,"REV_AT_EPOCH":5107,"BSTAR":0,"MEAN_MOTION_DOT":-2.5e-7,"MEAN_MOTION_DDOT":0},{"OBJECT_NAME":"O3B MPOWER F5","OBJECT_ID":"2023-175A","EPOCH":"2026-04-04T13:10:14.582496","MEAN_MOTION":5.00115742,"ECCENTRICITY":0.00042769,"INCLINATION":0.0427,"RA_OF_ASC_NODE":8.9221,"ARG_OF_PERICENTER":14.6597,"MEAN_ANOMALY":336.4364,"EPHEMERIS_TYPE":0,"CLASSIFICATION_TYPE":"U","NORAD_CAT_ID":58346,"ELEMENT_SET_NO":999,"REV_AT_EPOCH":4575,"BSTAR":0,"MEAN_MOTION_DOT":-2.6e-7,"MEAN_MOTION_DDOT":0},{"OBJECT_NAME":"O3B MPOWER F6","OBJECT_ID":"2023-175B","EPOCH":"2026-04-05T05:58:46.176384","MEAN_MOTION":5.00116387,"ECCENTRICITY":0.00048672,"INCLINATION":0.0502,"RA_OF_ASC_NODE":5.283,"ARG_OF_PERICENTER":358.3671,"MEAN_ANOMALY":356.3522,"EPHEMERIS_TYPE":0,"CLASSIFICATION_TYPE":"U","NORAD_CAT_ID":58347,"ELEMENT_SET_NO":999,"REV_AT_EPOCH":4469,"BSTAR":0,"MEAN_MOTION_DOT":-2.5e-7,"MEAN_MOTION_DDOT":0},{"OBJECT_NAME":"ASTRA 1P (SES-24)","OBJECT_ID":"2024-115A","EPOCH":"2026-04-05T05:20:38.838336","MEAN_MOTION":1.00267935,"ECCENTRICITY":0.00029065,"INCLINATION":0.0662,"RA_OF_ASC_NODE":26.4644,"ARG_OF_PERICENTER":287.4746,"MEAN_ANOMALY":338.9441,"EPHEMERIS_TYPE":0,"CLASSIFICATION_TYPE":"U","NORAD_CAT_ID":60086,"ELEMENT_SET_NO":999,"REV_AT_EPOCH":646,"BSTAR":0,"MEAN_MOTION_DOT":1.2e-6,"MEAN_MOTION_DDOT":0},{"OBJECT_NAME":"O3B MPOWER F7","OBJECT_ID":"2024-244A","EPOCH":"2026-04-05T02:46:17.838336","MEAN_MOTION":5.0011523,"ECCENTRICITY":0.00060994,"INCLINATION":0.0718,"RA_OF_ASC_NODE":1.0046,"ARG_OF_PERICENTER":12.045,"MEAN_ANOMALY":346.965,"EPHEMERIS_TYPE":0,"CLASSIFICATION_TYPE":"U","NORAD_CAT_ID":62362,"ELEMENT_SET_NO":999,"REV_AT_EPOCH":2286,"BSTAR":0,"MEAN_MOTION_DOT":-2.5e-7,"MEAN_MOTION_DDOT":0},{"OBJECT_NAME":"O3B MPOWER F8","OBJECT_ID":"2024-244B","EPOCH":"2026-04-05T01:58:42.789216","MEAN_MOTION":5.00115617,"ECCENTRICITY":0.00063954,"INCLINATION":0.0412,"RA_OF_ASC_NODE":315.0434,"ARG_OF_PERICENTER":51.1699,"MEAN_ANOMALY":353.7934,"EPHEMERIS_TYPE":0,"CLASSIFICATION_TYPE":"U","NORAD_CAT_ID":62363,"ELEMENT_SET_NO":999,"REV_AT_EPOCH":1721,"BSTAR":0,"MEAN_MOTION_DOT":-2.6e-7,"MEAN_MOTION_DDOT":0}]
