O3B FM17                
1 44114U 19020C   26095.15921898 -.00000026  00000+0  00000+0 0  9998
2 44114   0.0359 348.5737 0002634  22.2983 349.1325  5.00115522127874
O3B FM18                
1 44115U 19020D   26095.10552281 -.00000025  00000+0  00000+0 0  9999
2 44115   0.0533   1.1009 0002731  13.5975 345.3083  5.00115331127984
SES-17                  
1 49332U 21095A   26095.21184868 -.00000271  00000+0  00000+0 0  9997
2 49332   0.0332  45.2913 0001160 336.1875 181.2031  1.00269789 17125
SES-22                  
1 52933U 22071A   26095.21830608  .00000106  00000+0  00000+0 0  9999
2 52933   0.0182 230.4594 0001248 154.5621 108.0699  1.00271441  6796
SES-20                  
1 53960U 22123A   26094.94021737 -.00000100  00000+0  00000+0 0  9997
2 53960   0.0390  81.0494 0001862 340.8988   6.6710  1.00272587 12791
SES-21                  
1 53961U 22123B   26095.00597830  .00000070  00000+0  00000+0 0  9993
2 53961   0.0269  69.0097 0001511 296.3347  59.1142  1.00269456  6478
O3B MPOWER F1           
1 54755U 22174A   26095.00433162 -.00000026  00000+0  00000+0 0  9990
2 54755   0.0622 348.9934 0005641  43.4576   5.1082  5.00114922 61695
O3B MPOWER F2           
1 54756U 22174B   26095.15002367 -.00000026  00000+0  00000+0 0  9996
2 54756   0.0593 346.1754 0005931  27.2945 346.5447  5.00115573 61796
SES-18                  
1 55970U 23038A   26095.15738959 -.00000100  00000+0  00000+0 0  9991
2 55970   0.0251 260.5701 0001618  75.2730 171.1723  1.00272211 11377
SES-19                  
1 55971U 23038B   26095.21908608  .00000089  00000+0  00000+0 0  9994
2 55971   0.0221 278.6828 0001862 105.1196 113.6868  1.00271167 11353
O3B MPOWER F4           
1 56367U 23059A   26095.01447076 -.00000026  00000+0  00000+0 0  9994
2 56367   0.0643   4.4972 0007036  23.6746 331.8649  5.00116127 54941
O3B MPOWER F3           
1 56368U 23059B   26095.24765998 -.00000025  00000+0  00000+0 0  9995
2 56368   0.0654   4.4197 0006596  13.7817 341.8210  5.00116750 51070
O3B MPOWER F5           
1 58346U 23175A   26094.54877989 -.00000026  00000+0  00000+0 0  9999
2 58346   0.0427   8.9221 0004276  14.6597 336.4364  5.00115742 45759
O3B MPOWER F6           
1 58347U 23175B   26095.24914556 -.00000025  00000+0  00000+0 0  9999
2 58347   0.0502   5.2830 0004867 358.3671 356.3522  5.00116387 44692
ASTRA 1P (SES-24)       
1 60086U 24115A   26095.22267174  .00000120  00000+0  00000+0 0  9997
2 60086   0.0662  26.4644 0002906 287.4746 338.9441  1.00267935  6468
O3B MPOWER F7           
1 62362U 24244A   26095.11548424 -.00000025  00000+0  00000+0 0  9992
2 62362   0.0718   1.0046 0006099  12.0450 346.9650  5.00115230 22862
O3B MPOWER F8           
1 62363U 24244B   26095.08243969 -.00000026  00000+0  00000+0 0  9996
2 62363   0.0412 315.0434 0006395  51.1699 353.7934  5.00115617 17214
